EARTHCARE               
1 59908U 24101A   24229.90272818  .00031242  00000+0  44212-3 0  9992
2 59908  96.9853 356.2421 0002918 221.4388 138.6647 15.56450329 12428
